[{"OBJECT_NAME":"ONEWEB-0531","OBJECT_ID":"2022-138AK","EPOCH":"2026-03-09T16:30:48.735648","MEAN_MOTION":13.20771535,"ECCENTRICITY":0.0002205,"INCLINATION":87.9171,"RA_OF_ASC_NODE":294.3035,"ARG_OF_PERICENTER":64.0855,"MEAN_ANOMALY":296.0505,"EPHEMERIS_TYPE":0,"CLASSIFICATION_TYPE":"U","NORAD_CAT_ID":54146,"ELEMENT_SET_NO":999,"REV_AT_EPOCH":16617,"BSTAR":-0.00045194838,"MEAN_MOTION_DOT":-1.71e-6,"MEAN_MOTION_DDOT":0},{"OBJECT_NAME":"COSMOS 963","OBJECT_ID":"1977-109A","EPOCH":"2026-03-09T20:17:46.784832","MEAN_MOTION":13.17654828,"ECCENTRICITY":0.0014961,"INCLINATION":82.9355,"RA_OF_ASC_NODE":336.2952,"ARG_OF_PERICENTER":328.6045,"MEAN_ANOMALY":100.4048,"EPHEMERIS_TYPE":0,"CLASSIFICATION_TYPE":"U","NORAD_CAT_ID":10491,"ELEMENT_SET_NO":999,"REV_AT_EPOCH":32262,"BSTAR":-8.3269377e-5,"MEAN_MOTION_DOT":-2.0e-7,"MEAN_MOTION_DDOT":0}]
